From: horizons@ssd.jpl.nasa.gov (Horizons Ephemeris System)
Subject: [Horizons] SMALL BODY #C(500@10)_T(SWAN (P/2005 T4)) (1/1)
Date: February 14, 2021 at 6:45:41 PM PST

Automated mail xmit by MAIL_REQUEST, PID= 7423 Sun Feb 14 18:45:41 2021
++++++++++++++++++++++++++++++++ (part 1 of 1)  +++++++++++++++++++++++++++++++
*******************************************************************************
JPL/HORIZONS                  SWAN (P/2005 T4)             2021-Feb-14 18:45:41
Rec #:90003364 (+COV) Soln.date: 2014-Jun-13_19:43:39       # obs: 31 (17 days)

IAU76/J2000 helio. ecliptic osc. elements (au, days, deg., period=Julian yrs):

 EPOCH=  2453667.5 ! 2005-Oct-24.0000000 (TDB)    RMSW= n.a.
  EC= .9302970589572456   QR= .649399439103871    TP= 2453654.0373723088
  OM= 25.42228787729548   W= 41.44353425389921    IN= 160.0361800933672
  A= 9.316671999615368    MA= .4665978145366081   ADIST= 17.98394456012687
  PER= 28.438024464559    N= .034658747           ANGMOM= .019259698
  DAN= .73852             DDN= 4.14198            L= 345.7326396
  B= 13.0607479           MOID= .157261           TP= 2005-Oct-10.5373723088

Comet physical (GM= km^3/s^2; RAD= km):
  GM= n.a.                RAD= n.a.
  M1=  15.4     M2=  n.a.     k1=  10.    k2= n.a.     PHCOF= n.a.

COMET comments 
1: soln ref.= JPL#6, data arc: 2005-10-14 to 2005-10-31
2: k1=10.;
*******************************************************************************


*******************************************************************************
Ephemeris / MAIL_REQUEST Sun Feb 14 18:45:41 2021 Pasadena, USA  / Horizons
*******************************************************************************
Target body name: SWAN (P/2005 T4)                {source: JPL#6}
Center body name: Sun (10)                        {source: DE431}
Center-site name: BODY CENTER
*******************************************************************************
Start time      : A.D. 1990-Jan-01 00:00:00.0000 TDB
Stop  time      : A.D. 2020-Dec-31 00:00:00.0000 TDB
Step-size       : 200 steps
*******************************************************************************
Center geodetic : 0.00000000,0.00000000,0.0000000 {E-lon(deg),Lat(deg),Alt(km)}
Center cylindric: 0.00000000,0.00000000,0.0000000 {E-lon(deg),Dxy(km),Dz(km)}
Center radii    : 696000.0 x 696000.0 x 696000.0 k{Equator, meridian, pole}    
Small perturbers: Yes                             {source: SB431-N16}
Output units    : AU-D
Output type     : GEOMETRIC cartesian states
Output format   : 6 (LT, range, and range-rate)
Reference frame : Ecliptic of J2000.0
*******************************************************************************
Initial IAU76/J2000 heliocentric ecliptic osculating elements (au, days, deg.):
 EPOCH=  2453667.5 ! 2005-Oct-24.0000000 (TDB)    RMSW= n.a.                  
  EC= .9302970589572456   QR= .649399439103871    TP= 2453654.0373723088      
  OM= 25.42228787729548   W= 41.44353425389921    IN= 160.0361800933672       
 Equivalent ICRF heliocentric equatorial cartesian coordinates (au, au/d):
  X= 4.420344546390508E-01  Y=-5.493135768382696E-01  Z= 1.505229407593657E-02
 VX=-1.597934570606056E-02 VY=-2.306001896013712E-02 VZ=-4.507052663854282E-03
Comet physical (GM= km^3/s^2; RAD= km):                                        
  GM= n.a.                RAD= n.a.                                           
  M1=  15.4     M2=  n.a.     k1=  10.    k2= n.a.     PHCOF= n.a.            
*******************************************************************************
           JDTDB,            Calendar Date (TDB),                     LT,                     RG,                     RR,
**************************************************************************************************************************
$$SOE
2453553.500000000, A.D. 2005-Jul-02 00:00:00.0000,  1.076065161434151E-02,  1.863149071100633E+00, -1.338030933904625E-02,
2453610.110000000, A.D. 2005-Aug-27 14:38:24.0000,  6.185954012876604E-03,  1.071064735299263E+00, -1.405180432519624E-02,
2453666.720000000, A.D. 2005-Oct-23 05:16:48.0000,  4.038599446204537E-03,  6.992618176314750E-01,  7.482187644107703E-03,
2453723.330000000, A.D. 2005-Dec-18 19:55:12.0000,  8.271030278415975E-03,  1.432084499393854E+00,  1.416456200255227E-02,
2453779.940000000, A.D. 2006-Feb-13 10:33:36.0000,  1.266955384753914E-02,  2.193665247078672E+00,  1.268719262952960E-02,
2453836.550000000, A.D. 2006-Apr-11 01:12:00.0000,  1.659318431872350E-02,  2.873020803761346E+00,  1.137303199594778E-02,
2453893.160000000, A.D. 2006-Jun-06 15:50:24.0000,  2.014055162848894E-02,  3.487228413571292E+00,  1.037010148866246E-02,
2453949.770000000, A.D. 2006-Aug-02 06:28:48.0000,  2.339762633902927E-02,  4.051173417920355E+00,  9.583011381597407E-03,
2454006.380000000, A.D. 2006-Sep-27 21:07:12.0000,  2.642286420535074E-02,  4.574977117036788E+00,  8.943070618808696E-03,
2454062.990000000, A.D. 2006-Nov-23 11:45:36.0000,  2.925691975147860E-02,  5.065678623549491E+00,  8.408039475266449E-03,
2454119.600000000, A.D. 2007-Jan-19 02:24:00.0000,  3.192936703254497E-02,  5.528398526370998E+00,  7.950843980866125E-03,
2454176.210000000, A.D. 2007-Mar-16 17:02:24.0000,  3.446247238141401E-02,  5.966992121526081E+00,  7.553111122500637E-03,
2454232.820000000, A.D. 2007-May-12 07:40:48.0000,  3.687343448673689E-02,  6.384437269643725E+00,  7.201893887158852E-03,
2454289.430000000, A.D. 2007-Jul-07 22:19:12.0000,  3.917587877229897E-02,  6.783093139720273E+00,  6.888012555840749E-03,
2454346.040000000, A.D. 2007-Sep-02 12:57:36.0000,  4.138087438862201E-02,  7.164876295756840E+00,  6.604805803008009E-03,
2454402.650000000, A.D. 2007-Oct-29 03:36:00.0000,  4.349755391999677E-02,  7.531367995705806E+00,  6.347001647984351E-03,
2454459.260000000, A.D. 2007-Dec-24 18:14:24.0000,  4.553350901226400E-02,  7.883882692297663E+00,  6.110389751139815E-03,
2454515.870000000, A.D. 2008-Feb-19 08:52:48.0000,  4.749513360179083E-02,  8.223527461296044E+00,  5.891866510640615E-03,
2454572.480000000, A.D. 2008-Apr-15 23:31:12.0000,  4.938793400859134E-02,  8.551255692457174E+00,  5.689034174630441E-03,
2454629.090000000, A.D. 2008-Jun-11 14:09:36.0000,  5.121669836037693E-02,  8.867896424394832E+00,  5.499812220225061E-03,
2454685.700000000, A.D. 2008-Aug-07 04:48:00.0000,  5.298557450345661E-02,  9.174167834434590E+00,  5.322430907550199E-03,
2454742.310000000, A.D. 2008-Oct-02 19:26:24.0000,  5.469819867697769E-02,  9.470699517867923E+00,  5.155531783371180E-03,
2454798.920000000, A.D. 2008-Nov-28 10:04:48.0000,  5.635782199933156E-02,  9.758054388394486E+00,  4.998022295718153E-03,
2454855.530000000, A.D. 2009-Jan-24 00:43:12.0000,  5.796732946549936E-02,  1.003673196741055E+01,  4.848789400470134E-03,
2454912.140000000, A.D. 2009-Mar-21 15:21:36.0000,  5.952925468665270E-02,  1.030717093609178E+01,  4.706827441471073E-03,
2454968.750000000, A.D. 2009-May-17 06:00:00.0000,  6.104587102838331E-02,  1.056976491548848E+01,  4.571537397577992E-03,
2455025.360000000, A.D. 2009-Jul-12 20:38:24.0000,  6.251927737494192E-02,  1.082487731614327E+01,  4.442426214289565E-03,
2455081.970000000, A.D. 2009-Sep-07 11:16:48.0000,  6.395139094075483E-02,  1.107284009344374E+01,  4.318830533669249E-03,
2455138.580000000, A.D. 2009-Nov-03 01:55:12.0000,  6.534391582357685E-02,  1.131394830276970E+01,  4.200163809925020E-03,
2455195.190000000, A.D. 2009-Dec-29 16:33:36.0000,  6.669839430916957E-02,  1.154846898262281E+01,  4.086070348923597E-03,
2455251.800000000, A.D. 2010-Feb-24 07:12:00.0000,  6.801628007000518E-02,  1.177665382858930E+01,  3.976263822027651E-03,
2455308.410000000, A.D. 2010-Apr-21 21:50:24.0000,  6.929891988238326E-02,  1.199873602775686E+01,  3.870389916209799E-03,
2455365.020000000, A.D. 2010-Jun-17 12:28:48.0000,  7.054753262727333E-02,  1.221492662282322E+01,  3.768089448628617E-03,
2455421.630000000, A.D. 2010-Aug-13 03:07:12.0000,  7.176326084403135E-02,  1.242542343834551E+01,  3.669208020725038E-03,
2455478.240000000, A.D. 2010-Oct-08 17:45:36.0000,  7.294720236955234E-02,  1.263041655888961E+01,  3.573598542992821E-03,
2455534.850000000, A.D. 2010-Dec-04 08:24:00.0000,  7.410036521164901E-02,  1.283008051559803E+01,  3.480871390833493E-03,
2455591.460000000, A.D. 2011-Jan-29 23:02:24.0000,  7.522363477914865E-02,  1.302456861225690E+01,  3.390692019193968E-03,
2455648.070000000, A.D. 2011-Mar-27 13:40:48.0000,  7.631782603768590E-02,  1.321402195579170E+01,  3.303004152613361E-03,
2455704.680000000, A.D. 2011-May-23 04:19:12.0000,  7.738374654891154E-02,  1.339858037116780E+01,  3.217739665917798E-03,
2455761.290000000, A.D. 2011-Jul-18 18:57:36.0000,  7.842215994027248E-02,  1.357837607637901E+01,  3.134677638874261E-03,
2455817.900000000, A.D. 2011-Sep-13 09:36:00.0000,  7.943374108263947E-02,  1.375352592169432E+01,  3.053592191991786E-03,
2455874.510000000, A.D. 2011-Nov-09 00:14:24.0000,  8.041912219094004E-02,  1.392413937173517E+01,  2.974410108065031E-03,
2455931.120000000, A.D. 2012-Jan-04 14:52:48.0000,  8.137892273848339E-02,  1.409032368498009E+01,  2.897069862086874E-03,
2455987.730000000, A.D. 2012-Mar-01 05:31:12.0000,  8.231370342366784E-02,  1.425217594334733E+01,  2.821332913933083E-03,
2456044.340000000, A.D. 2012-Apr-26 20:09:36.0000,  8.322395717418082E-02,  1.440978149462025E+01,  2.747030208517499E-03,
2456100.950000000, A.D. 2012-Jun-22 10:48:00.0000,  8.411016656544762E-02,  1.456322389414360E+01,  2.674258231616173E-03,
2456157.560000000, A.D. 2012-Aug-18 01:26:24.0000,  8.497283238562353E-02,  1.471258985069858E+01,  2.603003646004535E-03,
2456214.170000000, A.D. 2012-Oct-13 16:04:48.0000,  8.581241986543889E-02,  1.485795991648910E+01,  2.533033382222423E-03,
2456270.780000000, A.D. 2012-Dec-09 06:43:12.0000,  8.662931640553063E-02,  1.499940116785614E+01,  2.464185489983310E-03,
2456327.390000000, A.D. 2013-Feb-03 21:21:36.0000,  8.742388447783338E-02,  1.513697636486968E+01,  2.396472746913765E-03,
